NORAD_CAT_ID,OBJECT_NAME,OBJECT_TYPE,EPOCH,MEAN_MOTION,ECCENTRICITY,INCLINATION,RA_OF_ASC_NODE,ARG_OF_PERICENTER,MEAN_ANOMALY,BSTAR,MEAN_MOTION_DOT,MEAN_MOTION_DDOT,TLE_LINE0,TLE_LINE1,TLE_LINE2,SEMIMAJOR_AXIS,PERIOD,APOGEE,PERIGEE,DECAYED
56498.0,STARLINK-5522,PAYLOAD,2023-09-25 23:28:38,15.69921143,0.0003429,70.0001,216.5779,264.739,95.3414,-5.6777e-06,-8.95e-06,0.0,0 STARLINK-5522,1 56498U 23064BC  23268.97822121 -.00000895  00000-0 -56777-5 0  9991,2 56498  70.0001 216.5779 0003429 264.7390  95.3414 15.69921143 22076,6737.26,91.724,361.435,356.814,0.0
56498.0,STARLINK-5522,PAYLOAD,2023-09-26 05:35:38,15.69920116,0.0003539,69.9997,215.8606,266.037,94.0421,-6.06e-06,-9.41e-06,0.0,0 STARLINK-5522,1 56498U 23064BC  23269.23308904 -.00000941  00000-0 -60600-5 0  9991,2 56498  69.9997 215.8606 0003539 266.0370  94.0421 15.69920116 21761,6737.263,91.724,361.512,356.743,0.0
56498.0,STARLINK-5522,PAYLOAD,2023-09-26 20:53:09,15.69925425,0.0004039,69.9982,214.0697,271.7575,88.3158,2.5251e-05,2.825e-05,0.0,0 STARLINK-5522,1 56498U 23064BC  23269.87024611  .00002825  00000-0  25251-4 0  9994,2 56498  69.9982 214.0697 0004039 271.7575  88.3158 15.69925425 21864,6737.247,91.724,361.834,356.391,0.0
56498.0,STARLINK-5522,PAYLOAD,2023-09-26 23:56:39,15.69931541,0.0003394,70.0007,213.7117,273.7552,86.3256,2.5163e-05,2.815e-05,0.0,0 STARLINK-5522,1 56498U 23064BC  23269.99767894  .00002815  00000-0  25163-4 0  9995,2 56498  70.0007 213.7117 0003394 273.7552  86.3256 15.69931541 22233,6737.23,91.724,361.381,356.808,0.0
56498.0,STARLINK-5522,PAYLOAD,2023-09-27 06:03:41,15.69909426,0.0003593,69.9997,212.9944,276.1025,83.9761,-9.3026e-06,-1.331e-05,0.0,0 STARLINK-5522,1 56498U 23064BC  23270.25255843 -.00001331  00000-0 -93026-5 0  9990,2 56498  69.9997 212.9944 0003593 276.1025  83.9761 15.69909426 22275,6737.293,91.725,361.579,356.737,0.0
56498.0,STARLINK-5522,PAYLOAD,2023-09-27 22:52:56,15.69922726,0.0003774,70.0004,211.0253,274.8033,85.2731,2.1581e-05,2.383e-05,0.0,0 STARLINK-5522,1 56498U 23064BC  23270.95343706  .00002383  00000-0  21581-4 0  9995,2 56498  70.0004 211.0253 0003774 274.8033  85.2731 15.69922726 22387,6737.255,91.724,361.663,356.577,0.0
56498.0,STARLINK-5522,PAYLOAD,2023-09-28 06:31:42,15.69923385,0.0003489,70.0011,210.1326,275.2635,84.8163,2.8202e-05,3.18e-05,0.0,0 STARLINK-5522,1 56498U 23064BC  23271.27202145  .00003180  00000-0  28202-4 0  9995,2 56498  70.0011 210.1326 0003489 275.2635  84.8163 15.69923385 22085,6737.253,91.724,361.469,356.768,0.0
56498.0,STARLINK-5522,PAYLOAD,2023-09-28 21:49:13,15.69931144,0.0003374,70.0012,208.3403,273.3875,86.6934,-1.9953e-05,-2.612e-05,0.0,0 STARLINK-5522,1 56498U 23064BC  23271.90918436 -.00002612  00000-0 -19953-4 0  9996,2 56498  70.0012 208.3403 0003374 273.3875  86.6934 15.69931144 22188,6737.231,91.724,361.369,356.823,0.0
56498.0,STARLINK-5522,PAYLOAD,2023-09-29 05:27:59,15.69929085,0.0003432,70.0006,207.4438,272.5395,87.5408,-1.407e-05,-1.905e-05,0.0,0 STARLINK-5522,1 56498U 23064BC  23272.22776828 -.00001905  00000-0 -14070-4 0  9998,2 56498  70.0006 207.4438 0003432 272.5395  87.5408 15.69929085 22583,6737.237,91.724,361.414,356.79,0.0
56498.0,STARLINK-5522,PAYLOAD,2023-09-30 04:24:16,15.69908495,0.0003672,70.0004,204.7567,266.5879,93.4897,-2.6856e-05,-3.439e-05,0.0,0 STARLINK-5522,1 56498U 23064BC  23273.18352841 -.00003439  00000-0 -26856-4 0  9998,2 56498  70.0004 204.7567 0003672 266.5879  93.4897 15.69908495 22737,6737.296,91.725,361.635,356.687,0.0
56498.0,STARLINK-5522,PAYLOAD,2023-10-01 01:49:31,15.68953212,0.000488,70.0008,202.2484,335.395,24.7012,-0.0018705,-0.0021105,0.0,0 STARLINK-5522,1 56498U 23064BC  23274.07605438 -.00211050  00000-0 -18705-2 0  9992,2 56498  70.0008 202.2484 0004880 335.3950  24.7012 15.68953212 22876,6740.03,91.781,365.184,358.606,0.0
56498.0,STARLINK-5522,PAYLOAD,2023-10-01 14:00:01,15.69824325,0.0003481,70.0015,200.819,270.5599,78.5824,0.0009613,0.00116513,0.0,0 STARLINK-5522,1 56498U 23064BC  23274.58334491  .00116513  00000-0  96130-3 0  9991,2 56498  70.0015 200.8190 0003481 270.5599  78.5824 15.69824325 22957,6737.537,91.73,361.747,357.056,0.0
56498.0,STARLINK-5522,PAYLOAD,2023-10-01 18:38:04,15.699117,0.0003671,70.0001,200.2773,273.9102,86.1674,-6.4548e-05,-7.963e-05,0.0,0 STARLINK-5522,1 56498U 23064BC  23274.77644363 -.00007963  00000-0 -64548-4 0  9993,2 56498  70.0001 200.2773 0003671 273.9102  86.1674 15.69911700 22986,6737.287,91.725,361.625,356.678,0.0
56498.0,STARLINK-5522,PAYLOAD,2023-10-01 21:41:35,15.69908568,0.0003507,70.0013,199.9197,270.3663,89.7131,-5.8251e-05,-7.207e-05,0.0,0 STARLINK-5522,1 56498U 23064BC  23274.90387918 -.00007207  00000-0 -58251-4 0  9993,2 56498  70.0013 199.9197 0003507 270.3663  89.7131 15.69908568 22653,6737.296,91.725,361.523,356.798,0.0
56498.0,STARLINK-5522,PAYLOAD,2023-10-02 05:20:19,15.69928571,0.000322,70.0015,199.025,256.1643,103.9195,-8.4242e-06,-1.226e-05,0.0,0 STARLINK-5522,1 56498U 23064BC  23275.22245234 -.00001226  00000-0 -84242-5 0  9998,2 56498  70.0015 199.0250 0003220 256.1643 103.9195 15.69928571 23058,6737.238,91.724,361.273,356.934,0.0
56498.0,STARLINK-5522,PAYLOAD,2023-10-02 20:37:50,15.6993528,0.0003431,70.0015,197.2313,279.0343,81.0464,-1.2912e-05,-1.766e-05,0.0,0 STARLINK-5522,1 56498U 23064BC  23275.85961587 -.00001766  00000-0 -12912-4 0  9996,2 56498  70.0015 197.2313 0003431 279.0343  81.0464 15.69935280 22805,6737.219,91.724,361.396,356.773,0.0
56498.0,STARLINK-5522,PAYLOAD,2023-10-03 04:16:35,15.69953984,0.000385,70.0001,196.3363,283.157,76.9195,-0.00014109,-0.00017166,0.0,0 STARLINK-5522,1 56498U 23064BC  23276.17818730 -.00017166  00000-0 -14109-3 0  9993,2 56498  70.0001 196.3363 0003850 283.1570  76.9195 15.69953984 23208,6737.166,91.722,361.624,356.437,0.0
56498.0,STARLINK-5522,PAYLOAD,2023-10-03 11:55:23,15.69900668,0.0003441,69.9985,195.4398,281.4085,78.6724,4.1932e-05,4.827e-05,0.0,0 STARLINK-5522,1 56498U 23064BC  23276.49680021  .00004827  00000-0  41932-4 0  9991,2 56498  69.9985 195.4398 0003441 281.4085  78.6724 15.69900668 23255,6737.318,91.726,361.501,356.865,0.0
56498.0,STARLINK-5522,PAYLOAD,2023-10-03 21:05:54,15.69906804,0.0003496,69.9982,194.3651,274.5467,85.533,2.7007e-05,3.033e-05,0.0,0 STARLINK-5522,1 56498U 23064BC  23276.87910224  .00003033  00000-0  27007-4 0  9999,2 56498  69.9982 194.3651 0003496 274.5467  85.5330 15.69906804 22964,6737.301,91.725,361.521,356.81,0.0
56498.0,STARLINK-5522,PAYLOAD,2023-10-04 04:44:39,15.69915733,0.0003521,69.9988,193.4692,279.9023,80.1775,2.3062e-05,2.56e-05,0.0,0 STARLINK-5522,1 56498U 23064BC  23277.19768372  .00002560  00000-0  23062-4 0  9991,2 56498  69.9988 193.4692 0003521 279.9023  80.1775 15.69915733 23361,6737.275,91.725,361.512,356.768,0.0
56498.0,STARLINK-5522,PAYLOAD,2023-10-04 18:30:24,15.6993197,0.0003205,69.998,191.8573,276.6712,83.4119,2.8547e-05,3.222e-05,0.0,0 STARLINK-5522,1 56498U 23064BC  23277.77111982  .00003222  00000-0  28547-4 0  9993,2 56498  69.9980 191.8573 0003205 276.6712  83.4119 15.69931970 23450,6737.229,91.724,361.253,356.934,0.0
56498.0,STARLINK-5522,PAYLOAD,2023-10-04 21:33:56,15.69907839,0.0002749,69.9981,191.4987,258.8005,101.2882,-2.6151e-06,-5.27e-06,0.0,0 STARLINK-5522,1 56498U 23064BC  23277.89857225 -.00000527  00000-0 -26151-5 0  9990,2 56498  69.9981 191.4987 0002749 258.8005 101.2882 15.69907839 23122,6737.298,91.725,361.015,357.311,0.0
56498.0,STARLINK-5522,PAYLOAD,2023-10-05 02:09:12,15.6990819,0.0003548,69.9981,190.9611,272.8072,87.2718,-2.8827e-06,-5.59e-06,0.0,0 STARLINK-5522,1 56498U 23064BC  23278.08972338 -.00000559  00000-0 -28827-5 0  9992,2 56498  69.9981 190.9611 0003548 272.8072  87.2718 15.69908190 23502,6737.297,91.725,361.552,356.771,0.0
56498.0,STARLINK-5522,PAYLOAD,2023-10-05 03:40:56,15.69914468,0.0003596,69.998,190.7833,276.1846,83.894,2.446e-06,8.1e-07,0.0,0 STARLINK-5522,1 56498U 23064BC  23278.15343605  .00000081  00000-0  24460-5 0  9996,2 56498  69.9980 190.7833 0003596 276.1846  83.8940 15.69914468 23519,6737.279,91.725,361.566,356.721,0.0
56498.0,STARLINK-5522,PAYLOAD,2023-10-05 20:30:13,15.69909587,0.0004722,69.9994,188.8125,294.4828,65.5875,-1.2406e-05,-1.705e-05,0.0,0 STARLINK-5522,1 56498U 23064BC  23278.85432372 -.00001705  00000-0 -12406-4 0  9995,2 56498  69.9994 188.8125 0004722 294.4828  65.5875 15.69909587 23274,6737.293,91.725,362.339,355.976,0.0
56498.0,STARLINK-5522,PAYLOAD,2023-10-06 02:37:13,15.69917055,0.000403,69.9983,188.0961,251.7787,108.297,-2.7546e-05,-3.523e-05,0.0,0 STARLINK-5522,1 56498U 23064BC  23279.10918056 -.00003523  00000-0 -27546-4 0  9993,2 56498  69.9983 188.0961 0004030 251.7787 108.2970 15.69917055 23667,6737.271,91.725,361.851,356.421,0.0
56498.0,STARLINK-5522,PAYLOAD,2023-10-06 11:47:43,15.6993115,0.000324,69.9994,187.0196,260.4521,99.6309,2.0081e-05,2.203e-05,0.0,0 STARLINK-5522,1 56498U 23064BC  23279.49147690  .00002203  00000-0  20081-4 0  9992,2 56498  69.9994 187.0196 0003240 260.4521  99.6309 15.69931150 23372,6737.231,91.724,361.279,356.913,0.0
56498.0,STARLINK-5522,PAYLOAD,2023-10-06 20:58:14,15.69935874,0.0002694,69.9992,185.9449,258.1223,101.9671,-1.641e-05,-2.186e-05,0.0,0 STARLINK-5522,1 56498U 23064BC  23279.87377636 -.00002186  00000-0 -16410-4 0  9992,2 56498  69.9992 185.9449 0002694 258.1223 101.9671 15.69935874 23436,6737.217,91.723,360.897,357.267,0.0
56498.0,STARLINK-5522,PAYLOAD,2023-10-07 01:33:29,15.69937096,0.0003375,69.9992,185.409,265.3109,94.7701,2.3522e-05,2.618e-05,0.0,0 STARLINK-5522,1 56498U 23064BC  23280.06492490  .00002618  00000-0  23522-4 0  9991,2 56498  69.9992 185.4090 0003375 265.3109  94.7701 15.69937096 23467,6737.214,91.723,361.353,356.805,0.0
56498.0,STARLINK-5522,PAYLOAD,2023-10-07 18:22:46,15.69915972,0.0003274,69.9993,183.4378,252.715,107.3688,3.7736e-05,4.325e-05,0.0,0 STARLINK-5522,1 56498U 23064BC  23280.76581844  .00004325  00000-0  37736-4 0  9999,2 56498  69.9993 183.4378 0003274 252.7150 107.3688 15.69915972 23924,6737.274,91.725,361.345,356.934,0.0
